GLOBALSTAR M069         
1 31573U 07020C   26200.31798443 -.00000065  00000+0  25665-3 0  9995
2 31573  52.0011 161.1821 0001535 218.8316 291.1387 12.23472365882737
GLOBALSTAR M072         
1 31574U 07020D   26200.20241265 -.00000088  00000+0 -51976-4 0  9990
2 31574  51.9950  15.0121 0001649  42.9418 127.9082 11.91658787878790
GLOBALSTAR M066         
1 32265U 07048C   26200.31692957 -.00000038  00000+0  47953-3 0  9991
2 32265  51.9612 325.6785 0005541 110.0250 266.3848 12.30389984864185
GLOBALSTAR M079         
1 37188U 10054A   26199.91173130 -.00000108  00000+0 -25509-4 0  9994
2 37188  52.0054  12.0956 0001129  83.7766  80.3936 12.62266401726552
GLOBALSTAR M074         
1 37189U 10054B   26200.25637730 -.00000107  00000+0 -19249-4 0  9999
2 37189  52.0035  10.3070 0000856  98.7148  72.2570 12.62262067727207
GLOBALSTAR M076         
1 37190U 10054C   26200.20364420 -.00000092  00000+0  65294-4 0  9992
2 37190  52.0050  10.6737 0001095  97.6061  73.5333 12.62262553726915
GLOBALSTAR M077         
1 37191U 10054D   26199.88898156 -.00000101  00000+0 -43080-3 0  9992
2 37191  51.9961  98.8316 0002198 231.8864 208.0459 11.67547245724846
GLOBALSTAR M075         
1 37192U 10054E   26200.05683488 -.00000101  00000+0  18153-4 0  9998
2 37192  51.9955  53.1567 0000781  70.6238  93.6683 12.62267888725961
GLOBALSTAR M073         
1 37193U 10054F   26200.05887909 -.00000095  00000+0  46244-4 0  9997
2 37193  52.0081 327.2763 0001017 101.9627  69.9281 12.62266947727956
GLOBALSTAR M083         
1 37739U 11033A   26200.19801231 -.00000084  00000+0  11195-3 0  9994
2 37739  51.9858 275.0389 0000701 110.3248 275.3725 12.62264346696994
GLOBALSTAR M088         
1 37740U 11033B   26200.10385852 -.00000111  00000+0 -38032-4 0  9995
2 37740  52.0190 181.8282 0000111  44.5486  31.8391 12.62269478692520
GLOBALSTAR M091         
1 37741U 11033C   26200.20979258 -.00000093  00000+0  62743-4 0  9990
2 37741  51.9986 144.4239 0000520  31.8856 106.6630 12.62264247693328
GLOBALSTAR M085         
1 37742U 11033D   26200.20272492 -.00000084  00000+0  11143-3 0  9994
2 37742  52.0128  95.7659 0000860  47.6871 118.7345 12.62264435693834
GLOBALSTAR M081         
1 37743U 11033E   26200.23128834 -.00000089  00000+0  84119-4 0  9997
2 37743  51.9959  98.0785 0000746  60.1551 115.9987 12.62265336693987
GLOBALSTAR M089         
1 37744U 11033F   26200.03047363 -.00000099  00000+0  24624-4 0  9999
2 37744  51.9940  52.8424 0000715  92.5063  71.8065 12.62267620694806
GLOBALSTAR M084         
1 38040U 11080A   26200.25250878 -.00000086  00000+0  99995-4 0  9991
2 38040  52.0014 279.6666 0000739 136.7218 256.7974 12.62263663672819
